NORAD_CAT_ID,OBJECT_NAME,OBJECT_TYPE,EPOCH,MEAN_MOTION,ECCENTRICITY,INCLINATION,RA_OF_ASC_NODE,ARG_OF_PERICENTER,MEAN_ANOMALY,BSTAR,MEAN_MOTION_DOT,MEAN_MOTION_DDOT,TLE_LINE0,TLE_LINE1,TLE_LINE2,SEMIMAJOR_AXIS,PERIOD,APOGEE,PERIGEE,DECAYED
51461.0,STARLINK-3181,PAYLOAD,2024-08-13 23:48:28,15.08819912,0.0001792,53.2188,330.0658,91.6739,268.4459,-0.00034971,-5.846e-05,0.0,0 STARLINK-3181,1 51461U 22010F   24226.99199269 -.00005846  00000-0 -34971-3 0  9994,2 51461  53.2188 330.0658 0001792  91.6739 268.4459 15.08819912140866,6917.942,95.439,541.046,538.567,0.0
51461.0,STARLINK-3181,PAYLOAD,2024-08-14 12:31:33,15.08835534,0.000128,53.2215,327.6882,80.7901,279.3236,0.00064039,9.917e-05,0.0,0 STARLINK-3181,1 51461U 22010F   24227.52191235  .00009917  00000-0  64039-3 0  9998,2 51461  53.2215 327.6882 0001280  80.7901 279.3236 15.08835534140941,6917.894,95.438,540.645,538.874,0.0
51461.0,STARLINK-3181,PAYLOAD,2024-08-14 14:06:56,15.08842893,0.0001266,53.2185,327.3893,79.3014,280.812,0.0011442,0.0001797,0.0,0 STARLINK-3181,1 51461U 22010F   24227.58815318  .00017970  00000-0  11442-2 0  9996,2 51461  53.2185 327.3893 0001266  79.3014 280.8120 15.08842893140450,6917.872,95.437,540.612,538.861,0.0
51461.0,STARLINK-3181,PAYLOAD,2024-08-15 23:30:02,15.08863367,0.0001487,53.2183,321.1458,83.7136,276.4026,0.0011487,0.00018052,0.0,0 STARLINK-3181,1 51461U 22010F   24228.97919414  .00018052  00000-0  11487-2 0  9993,2 51461  53.2183 321.1458 0001487  83.7136 276.4026 15.08863367141160,6917.809,95.436,540.703,538.645,0.0
51461.0,STARLINK-3181,PAYLOAD,2024-08-17 05:42:22,15.08853469,0.0001411,53.2158,315.493,96.4509,263.6644,0.0009922,0.00015544,0.0,0 STARLINK-3181,1 51461U 22010F   24230.23775722  .00015544  00000-0  99220-3 0  9992,2 51461  53.2158 315.4930 0001411  96.4509 263.6644 15.08853469141352,6917.839,95.437,540.68,538.728,0.0
51461.0,STARLINK-3181,PAYLOAD,2024-08-18 05:33:09,15.08847991,0.0001334,53.2175,311.0354,88.7132,271.4013,0.00049786,7.646e-05,0.0,0 STARLINK-3181,1 51461U 22010F   24231.23136028  .00007646  00000-0  49786-3 0  9999,2 51461  53.2175 311.0354 0001334  88.7132 271.4013 15.08847991141005,6917.856,95.437,540.644,538.798,0.0
51461.0,STARLINK-3181,PAYLOAD,2024-08-18 11:54:41,15.08853066,0.0001563,53.2175,309.8411,66.3051,293.8106,0.00066342,0.0001029,0.0,0 STARLINK-3181,1 51461U 22010F   24231.49631747  .00010290  00000-0  66342-3 0  9991,2 51461  53.2175 309.8411 0001563  66.3051 293.8106 15.08853066141540,6917.84,95.437,540.787,538.624,0.0
51461.0,STARLINK-3181,PAYLOAD,2024-08-19 11:45:28,15.08828486,0.0001354,53.2168,305.3825,100.2334,259.8811,-0.00034077,-5.705e-05,0.0,0 STARLINK-3181,1 51461U 22010F   24232.48991840 -.00005705  00000-0 -34077-3 0  9991,2 51461  53.2168 305.3825 0001354 100.2334 259.8811 15.08828486141691,6917.916,95.438,540.717,538.844,0.0
51461.0,STARLINK-3181,PAYLOAD,2024-08-20 05:14:43,15.08838699,0.0001345,53.2168,302.1128,98.353,261.7615,0.00036901,5.59e-05,0.0,0 STARLINK-3181,1 51461U 22010F   24233.21856236  .00005590  00000-0  36901-3 0  9990,2 51461  53.2168 302.1128 0001345  98.3530 261.7615 15.08838699141801,6917.884,95.438,540.68,538.819,0.0
51461.0,STARLINK-3181,PAYLOAD,2024-08-20 11:36:16,15.08854254,0.0001606,53.2169,300.9248,100.5419,259.5754,0.0011399,0.00017907,0.0,0 STARLINK-3181,1 51461U 22010F   24233.48352177  .00017907  00000-0  11399-2 0  9992,2 51461  53.2169 300.9248 0001606 100.5419 259.5754 15.08854254141346,6917.837,95.437,540.813,538.591,0.0
51461.0,STARLINK-3181,PAYLOAD,2024-08-21 09:51:39,15.08852254,0.0001731,53.2168,296.7613,113.7884,246.329,0.00026389,3.916e-05,0.0,0 STARLINK-3181,1 51461U 22010F   24234.41087695  .00003916  00000-0  26389-3 0  9997,2 51461  53.2168 296.7613 0001731 113.7884 246.3290 15.08852254141981,6917.843,95.437,540.905,538.51,0.0
51461.0,STARLINK-3181,PAYLOAD,2024-08-21 20:59:21,15.08842796,0.0001677,53.2166,294.681,103.7202,256.3977,6.02e-05,6.7e-06,0.0,0 STARLINK-3181,1 51461U 22010F   24234.87455915  .00000670  00000-0  60200-4 0  9996,2 51461  53.2166 294.6810 0001677 103.7202 256.3977 15.08842796142059,6917.872,95.437,540.897,538.577,0.0
